STARLINK-1039_new
1 14744C 19074AH  21326.14374935 -.00000614  00000-0 -41163-4 0  3260
2 14744  53.0539  68.0980 0001089  84.0050 323.3644 15.06391116    15
STARLINK-1039_old
1 24744C 19074AH  21325.12849350  .00003444  00000-0  23069-3 0  3250
2 24744  53.0542  72.6554 0001035  85.3257 213.1828 15.06403431    15
